[{"OBJECT_NAME":"STARLINK-36738","OBJECT_ID":"2026-034R","EPOCH":"2026-03-09T20:19:24.920544","MEAN_MOTION":15.80994826,"ECCENTRICITY":7.495e-5,"INCLINATION":53.1588,"RA_OF_ASC_NODE":210.4357,"ARG_OF_PERICENTER":133.3037,"MEAN_ANOMALY":226.8049,"EPHEMERIS_TYPE":0,"CLASSIFICATION_TYPE":"U","NORAD_CAT_ID":67865,"ELEMENT_SET_NO":999,"REV_AT_EPOCH":396,"BSTAR":0.001569705,"MEAN_MOTION_DOT":0.00322789,"MEAN_MOTION_DDOT":0},{"OBJECT_NAME":"COSMOS 1602","OBJECT_ID":"1984-105A","EPOCH":"2026-03-09T22:48:46.831392","MEAN_MOTION":15.83356674,"ECCENTRICITY":0.00023642,"INCLINATION":82.5141,"RA_OF_ASC_NODE":36.2127,"ARG_OF_PERICENTER":125.565,"MEAN_ANOMALY":234.584,"EPHEMERIS_TYPE":0,"CLASSIFICATION_TYPE":"U","NORAD_CAT_ID":15331,"ELEMENT_SET_NO":999,"REV_AT_EPOCH":26658,"BSTAR":0.00071609066,"MEAN_MOTION_DOT":0.00157023,"MEAN_MOTION_DDOT":0}]
